EUTELSAT QUANTUM        
1 49056U 21069B   25326.73870193  .00000147  00000+0  00000+0 0  9998
2 49056   0.0369  55.5848 0002958 200.3661 119.6683  1.00272031 15850
EUTELSAT KONNECT VHTS   
1 53765U 22110A   25326.72977522  .00000038  00000+0  00000+0 0  9990
2 53765   0.0697 107.9094 0002539 105.5751 113.9399  1.00269140  4757
EUTELSAT HOTBIRD 13F    
1 54048U 22134A   25325.94705986  .00000109  00000+0  00000+0 0  9996
2 54048   0.0499 289.4517 0002038  75.4122  50.2908  1.00274289 11295
EUTELSAT HOTBIRD 13G    
1 54225U 22146A   25326.16641775  .00000109  00000+0  00000+0 0  9996
2 54225   0.0451 239.9623 0001940 292.6352 321.7453  1.00271259  5396
EUTELSAT 10B            
1 54259U 22157A   25326.73116191  .00000090  00000+0  00000+0 0  9996
2 54259   0.0692 105.2490 0000862  11.9728 217.9879  1.00272854 10956
EUTELSAT 36D            
1 59346U 24059A   25326.02289363  .00000177  00000+0  00000+0 0  9991
2 59346   0.0178 314.3350 0000561  50.8701 100.1837  1.00271645  6076
